NORAD_CAT_ID,OBJECT_NAME,OBJECT_TYPE,EPOCH,MEAN_MOTION,ECCENTRICITY,INCLINATION,RA_OF_ASC_NODE,ARG_OF_PERICENTER,MEAN_ANOMALY,BSTAR,MEAN_MOTION_DOT,MEAN_MOTION_DDOT,TLE_LINE0,TLE_LINE1,TLE_LINE2,SEMIMAJOR_AXIS,PERIOD,APOGEE,PERIGEE,DECAYED
52343.0,STARLINK-3849,PAYLOAD,2023-06-03 21:33:58,15.08835803,0.0001214,53.2181,62.2446,96.081,264.0321,4.4003e-05,4.12e-06,0.0,0 STARLINK-3849,1 52343U 22045N   23154.89859598  .00000412  00000-0  44003-4 0  9998,2 52343  53.2181  62.2446 0001214  96.0810 264.0321 15.08835803 63205,6917.893,95.438,540.598,538.918,0.0
52343.0,STARLINK-3849,PAYLOAD,2023-06-04 00:44:44,15.08838883,0.0001171,53.2181,61.6507,94.9679,265.1447,7.0465e-05,8.34e-06,0.0,0 STARLINK-3849,1 52343U 22045N   23155.03107356  .00000834  00000-0  70465-4 0  9992,2 52343  53.2181  61.6507 0001171  94.9679 265.1447 15.08838883 63222,6917.884,95.438,540.559,538.939,0.0
52343.0,STARLINK-3849,PAYLOAD,2023-06-04 21:24:46,15.08836227,0.0001138,53.2181,57.7856,95.3303,264.7819,9.9752e-06,-1.29e-06,0.0,0 STARLINK-3849,1 52343U 22045N   23155.89219915 -.00000129  00000-0  99752-5 0  9990,2 52343  53.2181  57.7856 0001138  95.3303 264.7819 15.08836227 63359,6917.892,95.438,540.544,538.97,0.0
52343.0,STARLINK-3849,PAYLOAD,2023-06-05 03:46:18,15.08842544,0.0001082,53.218,56.5964,93.6944,266.4172,5.1507e-05,5.32e-06,0.0,0 STARLINK-3849,1 52343U 22045N   23156.15715402  .00000532  00000-0  51507-4 0  9994,2 52343  53.2180  56.5964 0001082  93.6944 266.4172 15.08842544 63399,6917.873,95.437,540.486,538.989,0.0
52343.0,STARLINK-3849,PAYLOAD,2023-06-05 18:04:46,15.08835171,0.000103,53.2179,53.92,95.774,264.337,1.1657e-05,-1.02e-06,0.0,0 STARLINK-3849,1 52343U 22045N   23156.75332127 -.00000102  00000-0  11657-4 0  9995,2 52343  53.2179  53.9200 0001030  95.7740 264.3370 15.08835171 63486,6917.895,95.438,540.473,539.048,0.0
52343.0,STARLINK-3849,PAYLOAD,2023-06-06 02:01:41,15.08844702,0.0001036,53.218,52.4332,94.9344,265.1767,8.5805e-05,1.078e-05,0.0,0 STARLINK-3849,1 52343U 22045N   23157.08451288  .00001078  00000-0  85805-4 0  9990,2 52343  53.2180  52.4332 0001036  94.9344 265.1767 15.08844702 63530,6917.866,95.437,540.448,539.014,0.0
52343.0,STARLINK-3849,PAYLOAD,2023-06-07 01:52:29,15.08843934,0.0001313,53.2193,47.9721,95.1398,264.9744,7.3341e-05,8.8e-06,0.0,0 STARLINK-3849,1 52343U 22045N   23158.07811489  .00000880  00000-0  73341-4 0  9995,2 52343  53.2193  47.9721 0001313  95.1398 264.9744 15.08843934 63689,6917.868,95.437,540.642,538.825,0.0
52343.0,STARLINK-3849,PAYLOAD,2023-06-07 22:32:30,15.08837459,0.0001209,53.2187,44.1068,99.4795,260.6334,-3.0447e-05,-7.72e-06,0.0,0 STARLINK-3849,1 52343U 22045N   23158.93924441 -.00000772  00000-0 -30447-4 0  9995,2 52343  53.2187  44.1068 0001209  99.4795 260.6334 15.08837459 63815,6917.888,95.438,540.59,538.917,0.0
52343.0,STARLINK-3849,PAYLOAD,2023-06-08 01:43:16,15.08841311,0.000115,53.2185,43.5118,91.2552,268.8572,1.7359e-06,-2.6e-06,0.0,0 STARLINK-3849,1 52343U 22045N   23159.07172133 -.00000260  00000-0  17359-5 0  9993,2 52343  53.2185  43.5118 0001150  91.2552 268.8572 15.08841311 63836,6917.876,95.437,540.537,538.946,0.0
52343.0,STARLINK-3849,PAYLOAD,2023-06-08 22:23:16,15.08848743,0.0001048,53.218,39.6459,101.0822,259.0288,5.0581e-05,5.17e-06,0.0,0 STARLINK-3849,1 52343U 22045N   23159.93283528  .00000517  00000-0  50581-4 0  9996,2 52343  53.2180  39.6459 0001048 101.0822 259.0288 15.08848743 63967,6917.854,95.437,540.444,538.994,0.0
52343.0,STARLINK-3849,PAYLOAD,2023-06-09 09:30:58,15.08848241,0.0001033,53.218,37.5655,90.6146,269.4964,3.8695e-05,3.28e-06,0.0,0 STARLINK-3849,1 52343U 22045N   23160.39651483  .00000328  00000-0  38695-4 0  9999,2 52343  53.2180  37.5655 0001033  90.6146 269.4964 15.08848241 64036,6917.855,95.437,540.435,539.006,0.0
52343.0,STARLINK-3849,PAYLOAD,2023-06-09 22:14:04,15.08841866,0.0001114,53.2168,35.1895,71.3141,288.7972,-5.4649e-05,-1.157e-05,0.0,0 STARLINK-3849,1 52343U 22045N   23160.92644433 -.00001157  00000-0 -54649-4 0  9995,2 52343  53.2168  35.1895 0001114  71.3141 288.7972 15.08841866 64111,6917.875,95.437,540.51,538.969,0.0
52343.0,STARLINK-3849,PAYLOAD,2023-06-10 01:24:50,15.08842811,0.0001125,53.218,34.5917,89.7957,270.3164,4.6326e-05,4.5e-06,0.0,0 STARLINK-3849,1 52343U 22045N   23161.05891752  .00000450  00000-0  46326-4 0  9994,2 52343  53.2180  34.5917 0001125  89.7957 270.3164 15.08842811 64136,6917.872,95.437,540.515,538.959,0.0
52343.0,STARLINK-3849,PAYLOAD,2023-06-10 22:04:51,15.08839923,0.0001176,53.2177,30.7274,77.1819,282.9305,-3.1413e-05,-7.88e-06,0.0,0 STARLINK-3849,1 52343U 22045N   23161.92004452 -.00000788  00000-0 -31413-4 0  9990,2 52343  53.2177  30.7274 0001176  77.1819 282.9305 15.08839923 64260,6917.881,95.438,540.559,538.932,0.0
52343.0,STARLINK-3849,PAYLOAD,2023-06-11 01:15:37,15.08844754,0.0001388,53.2186,30.1315,74.1275,285.987,-4.7194e-07,-2.95e-06,0.0,0 STARLINK-3849,1 52343U 22045N   23162.05252045 -.00000295  00000-0 -47194-6 0  9996,2 52343  53.2186  30.1315 0001388  74.1275 285.9870 15.08844754 64288,6917.866,95.437,540.691,538.771,0.0
52343.0,STARLINK-3849,PAYLOAD,2023-06-11 15:34:06,15.08834461,0.0001247,53.2183,27.4543,88.663,271.4505,3.9325e-05,3.38e-06,0.0,0 STARLINK-3849,1 52343U 22045N   23162.64868583  .00000338  00000-0  39325-4 0  9992,2 52343  53.2183  27.4543 0001247  88.6630 271.4505 15.08834461 64375,6917.897,95.438,540.625,538.9,0.0
52343.0,STARLINK-3849,PAYLOAD,2023-06-11 21:55:38,15.08839992,0.000106,53.2171,26.2652,87.0583,273.0531,0.00012005,1.623e-05,0.0,0 STARLINK-3849,1 52343U 22045N   23162.91364003  .00001623  00000-0  12005-3 0  9993,2 52343  53.2171  26.2652 0001060  87.0583 273.0531 15.08839992 64419,6917.88,95.438,540.479,539.012,0.0
52343.0,STARLINK-3849,PAYLOAD,2023-06-12 07:27:57,15.0884009,0.0001214,53.2181,24.4819,84.8382,275.2748,2.1135e-05,4.9e-07,0.0,0 STARLINK-3849,1 52343U 22045N   23163.31108291  .00000049  00000-0  21135-4 0  9999,2 52343  53.2181  24.4819 0001214  84.8382 275.2748 15.08840090 64479,6917.88,95.438,540.585,538.905,0.0
52343.0,STARLINK-3849,PAYLOAD,2023-06-12 21:46:25,15.08840215,0.0001166,53.2177,21.8061,84.1491,275.9634,7.298e-06,-1.72e-06,0.0,0 STARLINK-3849,1 52343U 22045N   23163.90724461 -.00000172  00000-0  72980-5 0  9990,2 52343  53.2177  21.8061 0001166  84.1491 275.9634 15.08840215 64564,6917.88,95.438,540.551,538.938,0.0
52343.0,STARLINK-3849,PAYLOAD,2023-06-13 16:51:03,15.08837928,0.0001016,53.2182,18.2386,91.1542,268.9567,-6.8184e-06,-3.96e-06,0.0,0 STARLINK-3849,1 52343U 22045N   23164.70212774 -.00000396  00000-0 -68184-5 0  9998,2 52343  53.2182  18.2386 0001016  91.1542 268.9567 15.08837928 64686,6917.887,95.438,540.455,539.049,0.0
52343.0,STARLINK-3849,PAYLOAD,2023-06-13 23:12:35,15.08843471,9.87e-05,53.2181,17.0492,88.9008,271.2098,4.0121e-05,3.51e-06,0.0,0 STARLINK-3849,1 52343U 22045N   23164.96708274  .00000351  00000-0  40121-4 0  9990,2 52343  53.2181  17.0492 0000987  88.9008 271.2098 15.08843471 64728,6917.87,95.437,540.418,539.052,0.0
52343.0,STARLINK-3849,PAYLOAD,2023-06-14 08:44:55,15.08822469,0.000108,53.2179,15.2652,82.8379,277.2736,0.00027071,4.021e-05,0.0,0 STARLINK-3849,1 52343U 22045N   23165.36453133  .00004021  00000-0  27071-3 0  9992,2 52343  53.2179  15.2652 0001080  82.8379 277.2736 15.08822469 64787,6917.934,95.439,540.546,539.052,0.0
52343.0,STARLINK-3849,PAYLOAD,2023-06-14 16:41:51,15.08832044,8.7e-05,53.2178,13.7781,84.6805,275.4287,1.4068e-05,-6.4e-07,0.0,0 STARLINK-3849,1 52343U 22045N   23165.69573151 -.00000064  00000-0  14068-4 0  9998,2 52343  53.2178  13.7781 0000870  84.6805 275.4287 15.08832044 64839,6917.905,95.438,540.372,539.168,0.0
52343.0,STARLINK-3849,PAYLOAD,2023-06-14 23:03:23,15.08838148,8.62e-05,53.2178,12.5885,84.4653,275.6437,4.7223e-05,4.64e-06,0.0,0 STARLINK-3849,1 52343U 22045N   23165.96068733  .00000464  00000-0  47223-4 0  9995,2 52343  53.2178  12.5885 0000862  84.4653 275.6437 15.08838148 64875,6917.886,95.438,540.347,539.155,0.0
52343.0,STARLINK-3849,PAYLOAD,2023-06-15 08:35:42,15.0883454,8.79e-05,53.2179,10.8037,86.2218,273.8874,4.2881e-05,3.95e-06,0.0,0 STARLINK-3849,1 52343U 22045N   23166.35813062  .00000395  00000-0  42881-4 0  9990,2 52343  53.2179  10.8037 0000879  86.2218 273.8874 15.08834540 64935,6917.897,95.438,540.37,539.154,0.0
52343.0,STARLINK-3849,PAYLOAD,2023-06-15 19:43:24,15.08842587,8.63e-05,53.218,8.7215,94.5125,265.5966,3.2758e-05,2.34e-06,0.0,0 STARLINK-3849,1 52343U 22045N   23166.82180621  .00000234  00000-0  32758-4 0  9994,2 52343  53.2180   8.7215 0000863  94.5125 265.5966 15.08842587 65002,6917.872,95.437,540.334,539.14,0.0
52343.0,STARLINK-3849,PAYLOAD,2023-06-16 10:01:51,15.08845291,8.91e-05,53.2178,6.0452,90.0762,270.0333,9.2128e-05,1.179e-05,0.0,0 STARLINK-3849,1 52343U 22045N   23167.41796135  .00001179  00000-0  92128-4 0  9999,2 52343  53.2178   6.0452 0000891  90.0762 270.0333 15.08845291 65095,6917.864,95.437,540.346,539.113,0.0
52343.0,STARLINK-3849,PAYLOAD,2023-06-16 13:12:38,15.08843925,9.09e-05,53.2177,5.4503,91.7916,268.318,0.00013411,1.847e-05,0.0,0 STARLINK-3849,1 52343U 22045N   23167.55044062  .00001847  00000-0  13411-3 0  9998,2 52343  53.2177   5.4503 0000909  91.7916 268.3180 15.08843925 65118,6917.868,95.437,540.362,539.105,0.0
52343.0,STARLINK-3849,PAYLOAD,2023-06-16 19:34:08,15.088923,5.46e-05,53.2178,4.2604,94.0257,266.0798,-0.00037314,-6.23e-05,0.0,0 STARLINK-3849,1 52343U 22045N   23167.81537805 -.00006230  00000-0 -37314-3 0  9990,2 52343  53.2178   4.2604 0000546  94.0257 266.0798 15.08892300 65154,6917.721,95.434,539.963,539.208,0.0
52343.0,STARLINK-3849,PAYLOAD,2023-06-17 06:41:53,15.0883682,8.81e-05,53.2179,2.1797,82.6794,277.4298,3.0958e-05,2.05e-06,0.0,0 STARLINK-3849,1 52343U 22045N   23168.27908706  .00000205  00000-0  30958-4 0  9995,2 52343  53.2179   2.1797 0000881  82.6794 277.4298 15.08836820 65220,6917.89,95.438,540.365,539.146,0.0
